OBJECT_NAME,OBJECT_ID,EPOCH,MEAN_MOTION,ECCENTRICITY,INCLINATION,RA_OF_ASC_NODE,ARG_OF_PERICENTER,MEAN_ANOMALY,EPHEMERIS_TYPE,CLASSIFICATION_TYPE,NORAD_CAT_ID,ELEMENT_SET_NO,REV_AT_EPOCH,BSTAR,MEAN_MOTION_DOT,MEAN_MOTION_DDOT
LEMUR-2-STARLIGHT,2025-276DY,2026-07-19T17:46:22.078848,14.99388782,.0014626,97.5234,270.2678,33.6189,326.5960,0,U,66783,999,3507,.30086E-3,.3633E-4,0
LEMUR-2-TARTIFLETTE,2025-276DZ,2026-07-19T17:44:08.367072,14.99370705,.0013855,97.5232,270.2741,42.2616,317.9673,0,U,66784,999,3507,.27785E-3,.3348E-4,0
LEMUR-2-VUKASIN,2025-276EA,2026-07-19T16:56:13.229088,15.00567775,.0002339,97.5206,270.6077,39.5355,320.6040,0,U,66785,999,3502,.17839E-3,.2194E-4,0
LEMUR-2-HOTSPUR-TOM,2025-276EB,2026-07-19T17:36:31.040640,14.99267468,.0013632,97.5213,270.2414,34.0717,326.1379,0,U,66786,999,3500,.23595E-3,.2827E-4,0
LEMUR-2-MYRA,2025-276EC,2026-07-19T17:41:57.008832,15.00618344,.0018591,97.5221,270.5586,40.4186,319.8416,0,U,66787,999,3509,.24574E-3,.3058E-4,0
LEMUR-2 FIKRETDENGIZ,2026-004A,2026-07-19T11:16:44.237280,14.88533773,.00098878,97.8033,198.5382,43.8961,316.3040,0,U,67363,999,2808,.23755522E-3,.2156E-4,0
TWILIGHT-1 OBJECT B,2026-004B,2026-07-19T17:03:46.230336,14.87801709,.0009402,97.8077,198.7739,32.8573,327.3226,0,U,67364,999,2812,.93768E-4,.802E-5,0
LEMUR-2-MARIO-SOUSA,2026-004C,2026-07-19T17:14:00.189600,14.88747170,.000951,97.8006,198.7777,44.5315,315.6664,0,U,67365,999,2813,.20987E-3,.1908E-4,0
LEMUR-2-SONNENBLUME,2026-004E,2026-07-19T10:52:06.867264,14.88465326,.00091639,97.8003,198.4871,46.3070,313.8905,0,U,67367,999,2809,.14525048E-3,.1294E-4,0
LEMUR-2-WOBLER,2026-004F,2026-07-19T10:35:40.364160,14.88714053,.00091799,97.8057,198.6312,37.7579,322.4281,0,U,67368,999,2809,.19638808E-3,.1781E-4,0
LEMUR-2-GRAM-E-SUE,2026-004H,2026-07-19T10:24:48.101184,14.88599959,.00083487,97.7989,198.4851,49.5477,310.6466,0,U,67370,999,2809,.12964898E-3,.1153E-4,0
LEMUR-2-KATIE,2026-004AA,2026-07-19T17:19:26.487840,14.90271589,.0003072,97.8049,199.3352,22.5460,337.5892,0,U,67387,999,2815,.21769E-3,.2058E-4,0
LEMUR-2-HCS-BAZUS,2026-004AB,2026-07-19T06:00:13.898304,14.90278599,.00026413,97.8039,198.8470,25.2355,334.8991,0,U,67388,999,2808,.18934613E-3,.1783E-4,0
